NORAD_CAT_ID,OBJECT_NAME,OBJECT_TYPE,EPOCH,MEAN_MOTION,ECCENTRICITY,INCLINATION,RA_OF_ASC_NODE,ARG_OF_PERICENTER,MEAN_ANOMALY,BSTAR,MEAN_MOTION_DOT,MEAN_MOTION_DDOT,TLE_LINE0,TLE_LINE1,TLE_LINE2,SEMIMAJOR_AXIS,PERIOD,APOGEE,PERIGEE,DECAYED
53025.0,STARLINK-4218,PAYLOAD,2024-02-23 12:32:34,15.08840525,0.0001329,53.2169,189.3031,93.8645,266.25,8.7169e-05,1.1e-05,0.0,0 STARLINK-4218,1 53025U 22076AR  24054.52262073  .00001100  00000-0  87169-4 0  9991,2 53025  53.2169 189.3031 0001329  93.8645 266.2500 15.08840525 90961,6917.879,95.438,540.663,538.824,0.0
53025.0,STARLINK-4218,PAYLOAD,2024-02-23 14:07:57,15.08841725,0.000132,53.217,189.0059,94.6796,265.4347,0.00010932,1.452e-05,0.0,0 STARLINK-4218,1 53025U 22076AR  24054.58886068  .00001452  00000-0  10932-3 0  9996,2 53025  53.2170 189.0059 0001320  94.6796 265.4347 15.08841725 90500,6917.875,95.437,540.653,538.827,0.0
53025.0,STARLINK-4218,PAYLOAD,2024-02-23 18:54:06,15.0884242,0.000114,53.2169,188.1146,91.8856,268.2267,0.00023885,3.516e-05,0.0,0 STARLINK-4218,1 53025U 22076AR  24054.78757990  .00003516  00000-0  23885-3 0  9993,2 53025  53.2169 188.1146 0001140  91.8856 268.2267 15.08842420 90539,6917.873,95.437,540.527,538.949,0.0
53025.0,STARLINK-4218,PAYLOAD,2024-02-24 12:23:21,15.08834325,0.000121,53.2164,184.8419,91.1612,268.9519,1.091e-05,-1.14e-06,0.0,0 STARLINK-4218,1 53025U 22076AR  24055.51622580 -.00000114  00000-0  10910-4 0  9999,2 53025  53.2164 184.8419 0001210  91.1612 268.9519 15.08834325 91118,6917.898,95.438,540.6,538.926,0.0
53025.0,STARLINK-4218,PAYLOAD,2024-02-24 13:58:45,15.08836671,0.0001211,53.2175,184.5449,94.9167,265.1964,6.44e-05,7.37e-06,0.0,0 STARLINK-4218,1 53025U 22076AR  24055.58246683  .00000737  00000-0  64400-4 0  9995,2 53025  53.2175 184.5449 0001211  94.9167 265.1964 15.08836671 90654,6917.891,95.438,540.593,538.918,0.0
53025.0,STARLINK-4218,PAYLOAD,2024-02-24 15:34:08,15.08839084,0.0001222,53.2172,184.25,87.0485,273.0647,8.538e-05,1.071e-05,0.0,0 STARLINK-4218,1 53025U 22076AR  24055.64870549  .00001071  00000-0  85380-4 0  9998,2 53025  53.2172 184.2500 0001222  87.0485 273.0647 15.08839084 90662,6917.883,95.438,540.594,538.903,0.0
53025.0,STARLINK-4218,PAYLOAD,2024-02-25 12:14:08,15.08845703,0.0001229,53.217,180.3854,92.2841,267.8292,0.0001134,1.518e-05,0.0,0 STARLINK-4218,1 53025U 22076AR  24056.50982179  .00001518  00000-0  11340-3 0  9997,2 53025  53.2170 180.3854 0001229  92.2841 267.8292 15.08845703 91269,6917.863,95.437,540.578,538.878,0.0
53025.0,STARLINK-4218,PAYLOAD,2024-02-25 15:24:54,15.0885066,0.0001319,53.2168,179.7925,98.8737,261.2404,0.00020129,2.918e-05,0.0,0 STARLINK-4218,1 53025U 22076AR  24056.64229848  .00002918  00000-0  20129-3 0  9999,2 53025  53.2168 179.7925 0001319  98.8737 261.2404 15.08850660 90814,6917.848,95.437,540.625,538.8,0.0
53025.0,STARLINK-4218,PAYLOAD,2024-02-26 13:40:18,15.08837827,0.0001771,53.2182,175.6294,80.9659,279.1533,-9.0788e-06,-4.33e-06,0.0,0 STARLINK-4218,1 53025U 22076AR  24057.56966415 -.00000433  00000-0 -90788-5 0  9991,2 53025  53.2182 175.6294 0001771  80.9659 279.1533 15.08837827 90957,6917.887,95.438,540.977,538.527,0.0
53025.0,STARLINK-4218,PAYLOAD,2024-02-26 16:51:05,15.08843128,0.0001512,53.217,175.0342,78.2441,281.872,9.9038e-05,1.289e-05,0.0,0 STARLINK-4218,1 53025U 22076AR  24057.70214169  .00001289  00000-0  99038-4 0  9993,2 53025  53.2170 175.0342 0001512  78.2441 281.8720 15.08843128 91448,6917.871,95.437,540.782,538.69,0.0
53025.0,STARLINK-4218,PAYLOAD,2024-02-27 11:55:43,15.08834377,0.0001686,53.2163,171.4654,69.4793,290.638,-5.7055e-05,-1.196e-05,0.0,0 STARLINK-4218,1 53025U 22076AR  24058.49702865 -.00001196  00000-0 -57055-4 0  9997,2 53025  53.2163 171.4654 0001686  69.4793 290.6380 15.08834377 91569,6917.898,95.438,540.929,538.596,0.0
53025.0,STARLINK-4218,PAYLOAD,2024-02-27 13:31:06,15.08831993,0.0001813,53.2171,171.1694,63.0304,297.0873,-7.4882e-05,-1.479e-05,0.0,0 STARLINK-4218,1 53025U 22076AR  24058.56327060 -.00001479  00000-0 -74882-4 0  9996,2 53025  53.2171 171.1694 0001813  63.0304 297.0873 15.08831993 91108,6917.905,95.438,541.024,538.516,0.0
53025.0,STARLINK-4218,PAYLOAD,2024-02-27 15:06:29,15.08838701,0.0001578,53.2167,170.8705,74.1023,286.0143,-4.0942e-05,-9.4e-06,0.0,0 STARLINK-4218,1 53025U 22076AR  24058.62950812 -.00000940  00000-0 -40942-4 0  9992,2 53025  53.2167 170.8705 0001578  74.1023 286.0143 15.08838701 91114,6917.884,95.438,540.841,538.658,0.0
53025.0,STARLINK-4218,PAYLOAD,2024-02-28 13:21:51,15.0888173,0.0001112,53.2172,166.7064,82.5439,277.568,0.00083073,0.00012973,0.0,0 STARLINK-4218,1 53025U 22076AR  24059.55684515  .00012973  00000-0  83073-3 0  9997,2 53025  53.2172 166.7064 0001112  82.5439 277.5680 15.08881730 91728,6917.753,95.435,540.387,538.849,0.0
53025.0,STARLINK-4218,PAYLOAD,2024-02-29 13:12:39,15.08836866,0.0001215,53.2155,162.2433,98.6518,261.4612,-8.3253e-05,-1.612e-05,0.0,0 STARLINK-4218,1 53025U 22076AR  24060.55046221 -.00001612  00000-0 -83253-4 0  9996,2 53025  53.2155 162.2433 0001215  98.6518 261.4612 15.08836866 91873,6917.89,95.438,540.595,538.914,0.0
53025.0,STARLINK-4218,PAYLOAD,2024-02-29 16:23:26,15.08838507,0.0001189,53.2152,161.6482,100.5662,259.5464,1.263e-05,-8.7e-07,0.0,0 STARLINK-4218,1 53025U 22076AR  24060.68294249 -.00000087  00000-0  12630-4 0  9990,2 53025  53.2152 161.6482 0001189 100.5662 259.5464 15.08838507 91428,6917.885,95.438,540.572,538.927,0.0
53025.0,STARLINK-4218,PAYLOAD,2024-03-01 13:03:27,15.08838309,0.0001219,53.2143,157.7844,90.5882,269.525,0.00056973,8.791e-05,0.0,0 STARLINK-4218,1 53025U 22076AR  24061.54407098  .00008791  00000-0  56973-3 0  9990,2 53025  53.2143 157.7844 0001219  90.5882 269.5250 15.08838309 91550,6917.886,95.438,540.594,538.907,0.0
53025.0,STARLINK-4218,PAYLOAD,2024-03-02 11:18:51,15.08849894,0.0001284,53.2149,153.6197,90.024,270.0899,0.00048584,7.455e-05,0.0,0 STARLINK-4218,1 53025U 22076AR  24062.47142872  .00007455  00000-0  48584-3 0  9994,2 53025  53.2149 153.6197 0001284  90.0240 270.0899 15.08849894 92162,6917.85,95.437,540.603,538.827,0.0
53025.0,STARLINK-4218,PAYLOAD,2024-03-03 11:09:38,15.08836011,0.0001278,53.217,149.1609,89.1709,270.9429,-1.2677e-05,-4.9e-06,0.0,0 STARLINK-4218,1 53025U 22076AR  24063.46503326 -.00000490  00000-0 -12677-4 0  9998,2 53025  53.2170 149.1609 0001278  89.1709 270.9429 15.08836011 92318,6917.893,95.438,540.642,538.873,0.0
53025.0,STARLINK-4218,PAYLOAD,2024-03-04 12:35:48,15.08855613,0.0001866,53.2172,144.4123,117.07,243.0483,0.00031592,4.745e-05,0.0,0 STARLINK-4218,1 53025U 22076AR  24064.52486234  .00004745  00000-0  31592-3 0  9995,2 53025  53.2172 144.4123 0001866 117.0700 243.0483 15.08855613 92471,6917.833,95.437,540.989,538.407,0.0
53025.0,STARLINK-4218,PAYLOAD,2024-03-04 22:08:07,15.08845761,0.0001223,53.2157,142.6232,100.302,259.811,0.00011251,1.503e-05,0.0,0 STARLINK-4218,1 53025U 22076AR  24064.92230615  .00001503  00000-0  11251-3 0  9998,2 53025  53.2157 142.6232 0001223 100.3020 259.8110 15.08845761 92062,6917.863,95.437,540.574,538.882,0.0
53025.0,STARLINK-4218,PAYLOAD,2024-03-05 12:26:36,15.08822527,0.00014,53.2162,139.9418,81.1168,278.9982,-0.0003754,-6.255e-05,0.0,0 STARLINK-4218,1 53025U 22076AR  24065.51847686 -.00006255  00000-0 -37540-3 0  9996,2 53025  53.2162 139.9418 0001400  81.1168 278.9982 15.08822527 92153,6917.934,95.439,540.767,538.83,0.0
53025.0,STARLINK-4218,PAYLOAD,2024-03-06 04:20:28,15.08839238,0.0001464,53.2172,136.9692,90.3022,269.8137,0.00059327,9.166e-05,0.0,0 STARLINK-4218,1 53025U 22076AR  24066.18088084  .00009166  00000-0  59327-3 0  9998,2 53025  53.2172 136.9692 0001464  90.3022 269.8137 15.08839238 92727,6917.883,95.438,540.76,538.735,0.0
53025.0,STARLINK-4218,PAYLOAD,2024-03-06 10:42:00,15.08861713,0.0001369,53.2159,135.7817,93.8275,266.2874,0.0014505,0.00022886,0.0,0 STARLINK-4218,1 53025U 22076AR  24066.44583776  .00022886  00000-0  14505-2 0  9997,2 53025  53.2159 135.7817 0001369  93.8275 266.2874 15.08861713 92766,6917.814,95.436,540.626,538.732,0.0
53025.0,STARLINK-4218,PAYLOAD,2024-03-06 13:52:46,15.08872326,0.0001278,53.2155,135.1869,92.786,267.3278,0.0017558,0.00027791,0.0,0 STARLINK-4218,1 53025U 22076AR  24066.57831495  .00027791  00000-0  17558-2 0  9996,2 53025  53.2155 135.1869 0001278  92.7860 267.3278 15.08872326 92313,6917.782,95.436,540.531,538.762,0.0
53025.0,STARLINK-4218,PAYLOAD,2024-03-07 04:11:14,15.08861966,0.0002495,53.2158,132.5103,82.9594,277.1682,0.001215,0.00019114,0.0,0 STARLINK-4218,1 53025U 22076AR  24067.17447678  .00019114  00000-0  12150-2 0  9992,2 53025  53.2158 132.5103 0002495  82.9594 277.1682 15.08861966 92872,6917.813,95.436,541.404,537.952,0.0
53025.0,STARLINK-4218,PAYLOAD,2024-03-07 10:32:46,15.08862367,0.0001834,53.2159,131.3179,92.887,267.2332,0.00066241,0.00010276,0.0,0 STARLINK-4218,1 53025U 22076AR  24067.43943228  .00010276  00000-0  66241-3 0  9994,2 53025  53.2159 131.3179 0001834  92.8870 267.2332 15.08862367 92447,6917.812,95.436,540.946,538.408,0.0
53025.0,STARLINK-4218,PAYLOAD,2024-03-08 04:02:01,15.08849536,0.0001601,53.2153,128.0484,87.9869,272.1307,0.00089342,0.00013963,0.0,0 STARLINK-4218,1 53025U 22076AR  24068.16807700  .00013963  00000-0  89342-3 0  9992,2 53025  53.2153 128.0484 0001601  87.9869 272.1307 15.08849536 93023,6917.851,95.437,540.824,538.609,0.0
53025.0,STARLINK-4218,PAYLOAD,2024-03-08 10:23:34,15.08841035,0.0001501,53.2156,126.8575,96.1413,263.975,0.000238,3.502e-05,0.0,0 STARLINK-4218,1 53025U 22076AR  24068.43303708  .00003502  00000-0  23800-3 0  9996,2 53025  53.2156 126.8575 0001501  96.1413 263.9750 15.08841035 93069,6917.877,95.437,540.781,538.704,0.0
53025.0,STARLINK-4218,PAYLOAD,2024-03-09 03:52:49,15.08837677,0.0001588,53.2153,123.5864,95.7182,264.3991,0.00018748,2.697e-05,0.0,0 STARLINK-4218,1 53025U 22076AR  24069.16168018  .00002697  00000-0  18748-3 0  9999,2 53025  53.2153 123.5864 0001588  95.7182 264.3991 15.08837677 93175,6917.887,95.438,540.851,538.654,0.0
